000
SAUS70 KWBC 020200 RRA
MTRFSM
METAR KFSM 020153Z 25009KT 10SM FEW049 28/22 A2991 RMK AO2 SLP123
T02830217
