000
SAUS70 KWBC 180200 RRC
MTRMIA
METAR KMIA 180153Z 20010KT 10SM FEW039 BKN050 BKN160 BKN250 27/23 A3005
RMK AO2 SLP177 T02670233
